HAWK-2B                 
1 47508U 21006CZ  26068.67629241  .00009474  00000+0  29651-3 0  9991
2 47508  97.2334 114.1140 0007102 185.9063 174.2098 15.33301353284246
STARLINK-35264          
1 65900U 25224U   26068.26540740  .00039593  00000+0  13421-2 0  9996
2 65900  53.1603  13.0061 0001243  64.3975 295.7154 15.30192029 24804
